0 COSMOS 1275 DEB
1 12743U 81053CL  13281.17631140  .00000517  00000-0  50377-3 0  6155
2 12743 082.9272 072.5188 0060771 211.6596 270.3558 13.76783374613088
0 COSMOS 1275 DEB
1 12743U 81053CL  13283.41044660  .00000528  00000-0  51452-3 0  6167
2 12743 082.9274 070.8548 0060915 205.4034 183.6828 13.76787192613391
0 COSMOS 1275 DEB
1 12743U 81053CL  13285.75715324  .00000537  00000-0  52390-3 0  6171
2 12743 082.9280 069.1071 0061065 198.8229 295.0007 13.76789609613716
0 COSMOS 1275 DEB
1 12743U 81053CL  13287.79474885  .00000639  00000-0  62591-3 0  6189
2 12743 082.9286 067.5897 0061188 193.1211 314.2337 13.76792459613992
0 COSMOS 1275 DEB
1 12743U 81053CL  13290.11590427  .00000639  00000-0  62638-3 0  6193
2 12743 082.9291 065.8614 0061336 186.6570 298.9105 13.76795441614318
0 COSMOS 1275 DEB
1 12743U 81053CL  13292.35502498  .00000686  00000-0  67297-3 0  6202
2 12743 082.9292 064.1944 0061473 180.4601 236.9722 13.76798133614628
0 COSMOS 1275 DEB
1 12743U 81053CL  13294.46067578  .00000711  00000-0  69781-3 0  6211
2 12743 082.9293 062.6267 0061595 174.6181 233.5330 13.76801412614918
